[{"OBJECT_NAME":"COSMOS 2504","OBJECT_ID":"2015-020D","EPOCH":"2026-03-09T23:13:36.834816","MEAN_MOTION":13.6133253,"ECCENTRICITY":0.06077174,"INCLINATION":82.5183,"RA_OF_ASC_NODE":307.9923,"ARG_OF_PERICENTER":183.8961,"MEAN_ANOMALY":175.7346,"EPHEMERIS_TYPE":0,"CLASSIFICATION_TYPE":"U","NORAD_CAT_ID":40555,"ELEMENT_SET_NO":999,"REV_AT_EPOCH":53669,"BSTAR":0.00011649917,"MEAN_MOTION_DOT":3.31e-6,"MEAN_MOTION_DDOT":0},{"OBJECT_NAME":"FENGYUN 1C DEB","OBJECT_ID":"1999-025CLZ","EPOCH":"2026-03-07T23:02:39.368832","MEAN_MOTION":13.86993668,"ECCENTRICITY":0.01614815,"INCLINATION":98.814,"RA_OF_ASC_NODE":58.4775,"ARG_OF_PERICENTER":154.2843,"MEAN_ANOMALY":262.5862,"EPHEMERIS_TYPE":0,"CLASSIFICATION_TYPE":"U","NORAD_CAT_ID":31922,"ELEMENT_SET_NO":999,"REV_AT_EPOCH":94198,"BSTAR":0.0014080725,"MEAN_MOTION_DOT":1.787e-5,"MEAN_MOTION_DDOT":0}]
